NORAD_CAT_ID,OBJECT_NAME,OBJECT_TYPE,EPOCH,MEAN_MOTION,ECCENTRICITY,INCLINATION,RA_OF_ASC_NODE,ARG_OF_PERICENTER,MEAN_ANOMALY,BSTAR,MEAN_MOTION_DOT,MEAN_MOTION_DDOT,TLE_LINE0,TLE_LINE1,TLE_LINE2,SEMIMAJOR_AXIS,PERIOD,APOGEE,PERIGEE,DECAYED
52464.0,STARLINK-3904,PAYLOAD,2023-04-26 02:12:32,15.08823682,0.0001296,53.2167,86.4564,89.4631,270.6509,-0.00031234,-5.253e-05,0.0,0 STARLINK-3904,1 52464U 22049P   23116.09203956 -.00005253  00000-0 -31234-3 0  9998,2 52464  53.2167  86.4564 0001296  89.4631 270.6509 15.08823682 54101,6917.93,95.439,540.692,538.899,0.0
52464.0,STARLINK-3904,PAYLOAD,2023-04-26 06:58:41,15.08821675,0.0001542,53.2164,85.5641,91.9178,268.1991,-0.0001681,-2.961e-05,0.0,0 STARLINK-3904,1 52464U 22049P   23116.29076372 -.00002961  00000-0 -16810-3 0  9996,2 52464  53.2164  85.5641 0001542  91.9178 268.1991 15.08821675 53973,6917.936,95.439,540.868,538.735,0.0
52464.0,STARLINK-3904,PAYLOAD,2023-04-27 03:38:43,15.0882955,0.0001524,53.2171,81.698,103.8868,256.2293,0.00021454,3.127e-05,0.0,0 STARLINK-3904,1 52464U 22049P   23117.15188910  .00003127  00000-0  21454-3 0  9997,2 52464  53.2171  81.6980 0001524 103.8868 256.2293 15.08829550 54269,6917.912,95.438,540.832,538.723,0.0
52464.0,STARLINK-3904,PAYLOAD,2023-04-27 06:49:29,15.08838063,0.0001341,53.2175,81.1028,84.0484,276.0661,0.00017304,2.467e-05,0.0,0 STARLINK-3904,1 52464U 22049P   23117.28436632  .00002467  00000-0  17304-3 0  9993,2 52464  53.2175  81.1028 0001341  84.0484 276.0661 15.08838063 54125,6917.886,95.438,540.679,538.824,0.0
52464.0,STARLINK-3904,PAYLOAD,2023-04-28 03:29:29,15.08864903,0.0001257,53.2161,77.2382,89.9189,270.1947,0.00071589,0.00011132,0.0,0 STARLINK-3904,1 52464U 22049P   23118.14547725  .00011132  00000-0  71589-3 0  9999,2 52464  53.2161  77.2382 0001257  89.9189 270.1947 15.08864903 54417,6917.804,95.436,540.539,538.8,0.0
52464.0,STARLINK-3904,PAYLOAD,2023-04-28 06:40:15,15.08875467,0.0001301,53.216,76.6433,89.6637,270.4504,0.00089632,0.0001402,0.0,0 STARLINK-3904,1 52464U 22049P   23118.27795365  .00014020  00000-0  89632-3 0  9995,2 52464  53.2160  76.6433 0001301  89.6637 270.4504 15.08875467 54274,6917.772,95.435,540.537,538.737,0.0
52464.0,STARLINK-3904,PAYLOAD,2023-04-28 14:37:10,15.08862378,0.0001374,53.2158,75.1579,85.2086,274.9063,0.00019931,2.887e-05,0.0,0 STARLINK-3904,1 52464U 22049P   23118.60915276  .00002887  00000-0  19931-3 0  9990,2 52464  53.2158  75.1579 0001374  85.2086 274.9063 15.08862378 54485,6917.812,95.436,540.627,538.726,0.0
52464.0,STARLINK-3904,PAYLOAD,2023-04-29 03:20:15,15.08851645,0.000117,53.2158,72.7775,100.5069,259.6055,0.0002003,2.902e-05,0.0,0 STARLINK-3904,1 52464U 22049P   23119.13907139  .00002902  00000-0  20030-3 0  9998,2 52464  53.2158  72.7775 0001170 100.5069 259.6055 15.08851645 54567,6917.845,95.437,540.519,538.9,0.0
52464.0,STARLINK-3904,PAYLOAD,2023-04-29 06:31:02,15.088534,0.0001144,53.2158,72.1826,101.5459,258.5662,0.00046113,7.061e-05,0.0,0 STARLINK-3904,1 52464U 22049P   23119.27155099  .00007061  00000-0  46113-3 0  9994,2 52464  53.2158  72.1826 0001144 101.5459 258.5662 15.08853400 54421,6917.839,95.437,540.496,538.913,0.0
52464.0,STARLINK-3904,PAYLOAD,2023-04-29 20:49:30,15.08843833,0.000111,53.2163,69.5071,96.1828,263.929,0.00082255,0.00012829,0.0,0 STARLINK-3904,1 52464U 22049P   23119.86771748  .00012829  00000-0  82255-3 0  9999,2 52464  53.2163  69.5071 0001110  96.1828 263.9290 15.08843833 54674,6917.869,95.437,540.502,538.966,0.0
52464.0,STARLINK-3904,PAYLOAD,2023-04-30 03:11:03,15.08843906,0.0001125,53.2166,68.3169,101.3695,258.7423,0.00060427,9.343e-05,0.0,0 STARLINK-3904,1 52464U 22049P   23120.13267744  .00009343  00000-0  60427-3 0  9991,2 52464  53.2166  68.3169 0001125 101.3695 258.7423 15.08843906 54557,6917.868,95.437,540.512,538.955,0.0
52464.0,STARLINK-3904,PAYLOAD,2023-05-01 03:01:50,15.08835577,0.0001308,53.2172,63.8576,108.7383,251.3751,0.00012837,1.755e-05,0.0,0 STARLINK-3904,1 52464U 22049P   23121.12628304  .00001755  00000-0  12837-3 0  9995,2 52464  53.2172  63.8576 0001308 108.7383 251.3751 15.08835577 54866,6917.894,95.438,540.664,538.854,0.0
52464.0,STARLINK-3904,PAYLOAD,2023-05-02 06:03:23,15.08856114,0.0001151,53.2169,58.8012,85.8616,274.2507,0.00040465,6.161e-05,0.0,0 STARLINK-3904,1 52464U 22049P   23122.25235557  .00006161  00000-0  40465-3 0  9998,2 52464  53.2169  58.8012 0001151  85.8616 274.2507 15.08856114 55034,6917.831,95.437,540.492,538.9,0.0
52464.0,STARLINK-3904,PAYLOAD,2023-05-02 18:46:28,15.08847815,0.0001758,53.2171,56.4218,77.615,282.5039,0.00020691,3.007e-05,0.0,0 STARLINK-3904,1 52464U 22049P   23122.78227950  .00003007  00000-0  20691-3 0  9999,2 52464  53.2171  56.4218 0001758  77.6150 282.5039 15.08847815 55113,6917.857,95.437,540.938,538.505,0.0
52464.0,STARLINK-3904,PAYLOAD,2023-05-02 20:21:52,15.08845639,0.0001154,53.2172,56.1233,86.7046,273.4078,0.00018182,2.607e-05,0.0,0 STARLINK-3904,1 52464U 22049P   23122.84851936  .00002607  00000-0  18182-3 0  9990,2 52464  53.2172  56.1233 0001154  86.7046 273.4078 15.08845639 54969,6917.863,95.437,540.526,538.93,0.0
52464.0,STARLINK-3904,PAYLOAD,2023-05-03 04:18:47,15.08844936,9.97e-05,53.2169,54.6373,82.6371,277.4735,0.00011747,1.583e-05,0.0,0 STARLINK-3904,1 52464U 22049P   23123.17971751  .00001583  00000-0  11747-3 0  9997,2 52464  53.2169  54.6373 0000997  82.6371 277.4735 15.08844936 55013,6917.865,95.437,540.42,539.041,0.0
52464.0,STARLINK-3904,PAYLOAD,2023-05-04 04:09:34,15.0884712,0.0001043,53.217,50.1782,78.365,281.7459,0.00012295,1.67e-05,0.0,0 STARLINK-3904,1 52464U 22049P   23124.17331719  .00001670  00000-0  12295-3 0  9998,2 52464  53.2170  50.1782 0001043  78.3650 281.7459 15.08847120 55160,6917.859,95.437,540.445,539.002,0.0
52464.0,STARLINK-3904,PAYLOAD,2023-05-04 20:03:26,15.08837887,0.000125,53.218,47.2052,76.6587,283.4545,0.00011659,1.568e-05,0.0,0 STARLINK-3904,1 52464U 22049P   23124.83572346  .00001568  00000-0  11659-3 0  9993,2 52464  53.2180  47.2052 0001250  76.6587 283.4545 15.08837887 55263,6917.887,95.438,540.617,538.887,0.0
52464.0,STARLINK-3904,PAYLOAD,2023-05-05 00:49:35,15.08841431,0.0001264,53.2181,46.3132,70.7132,289.3997,0.00016003,2.26e-05,0.0,0 STARLINK-3904,1 52464U 22049P   23125.03444242  .00002260  00000-0  16003-3 0  9997,2 52464  53.2181  46.3132 0001264  70.7132 289.3997 15.08841431 55456,6917.876,95.437,540.615,538.867,0.0
52464.0,STARLINK-3904,PAYLOAD,2023-05-05 04:00:21,15.0884528,0.0001264,53.2175,45.7178,83.7599,276.3537,0.00021608,3.153e-05,0.0,0 STARLINK-3904,1 52464U 22049P   23125.16691997  .00003153  00000-0  21608-3 0  9991,2 52464  53.2175  45.7178 0001264  83.7599 276.3537 15.08845280 55310,6917.864,95.437,540.604,538.855,0.0
52464.0,STARLINK-3904,PAYLOAD,2023-05-06 00:40:23,15.08837445,0.0001235,53.2168,41.8511,91.4185,268.6948,5.1442e-05,5.31e-06,0.0,0 STARLINK-3904,1 52464U 22049P   23126.02804553  .00000531  00000-0  51442-4 0  9998,2 52464  53.2168  41.8511 0001235  91.4185 268.6948 15.08837445 55601,6917.888,95.438,540.608,538.899,0.0
52464.0,STARLINK-3904,PAYLOAD,2023-05-06 03:51:09,15.08843278,0.0001221,53.2171,41.2558,93.0304,267.0828,9.849e-05,1.28e-05,0.0,0 STARLINK-3904,1 52464U 22049P   23126.16052426  .00001280  00000-0  98490-4 0  9993,2 52464  53.2171  41.2558 0001221  93.0304 267.0828 15.08843278 55461,6917.87,95.437,540.58,538.891,0.0
52464.0,STARLINK-3904,PAYLOAD,2023-05-07 03:41:55,15.08861254,0.0001443,53.2176,36.7946,102.7517,257.3637,0.0004878,7.488e-05,0.0,0 STARLINK-3904,1 52464U 22049P   23127.15411718  .00007488  00000-0  48780-3 0  9998,2 52464  53.2176  36.7946 0001443 102.7517 257.3637 15.08861254 55774,6917.815,95.436,540.679,538.682,0.0
52464.0,STARLINK-3904,PAYLOAD,2023-05-07 21:11:10,15.08839332,0.0001224,53.2179,33.5233,115.6565,244.4554,5.8896e-05,6.5e-06,0.0,0 STARLINK-3904,1 52464U 22049P   23127.88276549  .00000650  00000-0  58896-4 0  9993,2 52464  53.2179  33.5233 0001224 115.6565 244.4554 15.08839332 55726,6917.882,95.438,540.594,538.901,0.0
52464.0,STARLINK-3904,PAYLOAD,2023-05-08 03:32:43,15.08840494,0.0001133,53.2177,32.3364,103.8772,256.2346,0.00017448,2.49e-05,0.0,0 STARLINK-3904,1 52464U 22049P   23128.14772579  .00002490  00000-0  17448-3 0  9998,2 52464  53.2177  32.3364 0001133 103.8772 256.2346 15.08840494 55927,6917.879,95.438,540.528,538.96,0.0
52464.0,STARLINK-3904,PAYLOAD,2023-05-08 22:37:21,15.08846514,0.0001101,53.2174,28.7688,109.382,250.7291,0.00055768,8.6e-05,0.0,0 STARLINK-3904,1 52464U 22049P   23128.94260742  .00008600  00000-0  55768-3 0  9996,2 52464  53.2174  28.7688 0001101 109.3820 250.7291 15.08846514 55884,6917.86,95.437,540.487,538.964,0.0
52464.0,STARLINK-3904,PAYLOAD,2023-05-09 00:12:44,15.08850928,0.0001121,53.2175,28.4713,110.0595,250.0518,0.00068581,0.00010647,0.0,0 STARLINK-3904,1 52464U 22049P   23129.00884638  .00010647  00000-0  68581-3 0  9991,2 52464  53.2175  28.4713 0001121 110.0595 250.0518 15.08850928 55891,6917.847,95.437,540.487,538.936,0.0
52464.0,STARLINK-3904,PAYLOAD,2023-05-10 00:03:31,15.08840257,0.0001308,53.218,24.0132,111.1049,249.0083,0.00016915,2.405e-05,0.0,0 STARLINK-3904,1 52464U 22049P   23130.00244627  .00002405  00000-0  16915-3 0  9998,2 52464  53.2180  24.0132 0001308 111.1049 249.0083 15.08840257 56044,6917.88,95.438,540.649,538.84,0.0
52464.0,STARLINK-3904,PAYLOAD,2023-05-10 23:54:18,15.08843462,0.0001281,53.218,19.5542,125.1296,234.9816,0.00014057,1.95e-05,0.0,0 STARLINK-3904,1 52464U 22049P   23130.99604871  .00001950  00000-0  14057-3 0  9996,2 52464  53.2180  19.5542 0001281 125.1296 234.9816 15.08843462 56191,6917.87,95.437,540.621,538.849,0.0
52464.0,STARLINK-3904,PAYLOAD,2023-05-11 23:45:06,15.08836803,0.0001027,53.2178,15.0927,107.2708,252.8397,6.627e-05,7.67e-06,0.0,0 STARLINK-3904,1 52464U 22049P   23131.98965475  .00000767  00000-0  66270-4 0  9996,2 52464  53.2178  15.0927 0001027 107.2708 252.8397 15.08836803 56502,6917.89,95.438,540.466,539.045,0.0
